[{"OBJECT_NAME":"GEOSCAN 1 (RS92S1)","OBJECT_ID":"2025-155E","EPOCH":"2026-03-09T22:44:05.846496","MEAN_MOTION":15.28410635,"ECCENTRICITY":0.00087099,"INCLINATION":97.4463,"RA_OF_ASC_NODE":37.403,"ARG_OF_PERICENTER":153.6429,"MEAN_ANOMALY":206.5255,"EPHEMERIS_TYPE":0,"CLASSIFICATION_TYPE":"U","NORAD_CAT_ID":64880,"ELEMENT_SET_NO":999,"REV_AT_EPOCH":6560,"BSTAR":0.00054367431,"MEAN_MOTION_DOT":0.00014993,"MEAN_MOTION_DDOT":0},{"OBJECT_NAME":"STARLINK-36103","OBJECT_ID":"2025-288AC","EPOCH":"2026-03-09T03:56:44.559168","MEAN_MOTION":15.27565504,"ECCENTRICITY":0.00019003,"INCLINATION":43.0021,"RA_OF_ASC_NODE":26.7029,"ARG_OF_PERICENTER":273.699,"MEAN_ANOMALY":86.3644,"EPHEMERIS_TYPE":0,"CLASSIFICATION_TYPE":"U","NORAD_CAT_ID":66985,"ELEMENT_SET_NO":999,"REV_AT_EPOCH":1520,"BSTAR":0.00097588876,"MEAN_MOTION_DOT":0.00026678,"MEAN_MOTION_DDOT":0}]
